[{"OBJECT_NAME":"SIT-HSE","OBJECT_ID":"2024-199AE","EPOCH":"2026-03-09T22:33:27.365184","MEAN_MOTION":15.47455321,"ECCENTRICITY":0.00045337,"INCLINATION":97.3131,"RA_OF_ASC_NODE":303.904,"ARG_OF_PERICENTER":302.8668,"MEAN_ANOMALY":57.2146,"EPHEMERIS_TYPE":0,"CLASSIFICATION_TYPE":"U","NORAD_CAT_ID":61763,"ELEMENT_SET_NO":999,"REV_AT_EPOCH":12221,"BSTAR":0.00051198137,"MEAN_MOTION_DOT":0.00026224,"MEAN_MOTION_DDOT":0},{"OBJECT_NAME":"STARLINK-36749","OBJECT_ID":"2026-026P","EPOCH":"2026-03-09T22:00:01.999584","MEAN_MOTION":15.4912068,"ECCENTRICITY":0.00016392,"INCLINATION":97.285,"RA_OF_ASC_NODE":123.4271,"ARG_OF_PERICENTER":90.4639,"MEAN_ANOMALY":305.6307,"EPHEMERIS_TYPE":0,"CLASSIFICATION_TYPE":"U","NORAD_CAT_ID":67734,"ELEMENT_SET_NO":999,"REV_AT_EPOCH":535,"BSTAR":0.0016232845,"MEAN_MOTION_DOT":0.00088987,"MEAN_MOTION_DDOT":0}]
